{"type":"FeatureCollection","name":"araseo_route_graph","crs":{"type":"name","properties":{"name":"urn:ogc:def:crs:EPSG::3857"}},"features":[{"type":"Feature","properties":{"id":1},"geometry":{"type":"Point","coordinates":[0.373978,1.158214]}},{"type":"Feature","properties":{"id":2},"geometry":{"type":"Point","coordinates":[0.77828,1.158214]}},{"type":"Feature","properties":{"id":3},"geometry":{"type":"Point","coordinates":[1.10172,1.158214]}},{"type":"Feature","properties":{"id":4},"geometry":{"type":"Point","coordinates":[1.470645,1.158214]}},{"type":"Feature","properties":{"id":5},"geometry":{"type":"Point","coordinates":[1.470645,1.319357]}},{"type":"Feature","properties":{"id":6},"geometry":{"type":"Point","coordinates":[1.10172,1.319357]}},{"type":"Feature","properties":{"id":7},"geometry":{"type":"Point","coordinates":[0.77828,1.319357]}},{"type":"Feature","properties":{"id":8},"geometry":{"type":"Point","coordinates":[0.373978,1.319357]}},{"type":"Feature","properties":{"id":9},"geometry":{"type":"Point","coordinates":[1.394839,0.251786]}},{"type":"Feature","properties":{"id":10},"geometry":{"type":"Point","coordinates":[1.10172,0.251786]}},{"type":"Feature","properties":{"id":11},"geometry":{"type":"Point","coordinates":[0.77828,0.251786]}},{"type":"Feature","properties":{"id":12},"geometry":{"type":"Point","coordinates":[0.298172,0.251786]}},{"type":"Feature","properties":{"id":13},"geometry":{"type":"Point","coordinates":[0.298172,0.090643]}},{"type":"Feature","properties":{"id":14},"geometry":{"type":"Point","coordinates":[0.77828,0.090643]}},{"type":"Feature","properties":{"id":15},"geometry":{"type":"Point","coordinates":[1.10172,0.090643]}},{"type":"Feature","properties":{"id":16},"geometry":{"type":"Point","coordinates":[1.394839,0.090643]}},{"type":"Feature","properties":{"id":17},"geometry":{"type":"Point","coordinates":[0.090968,1.037357]}},{"type":"Feature","properties":{"id":18},"geometry":{"type":"Point","coordinates":[0.090968,0.866143]}},{"type":"Feature","properties":{"id":19},"geometry":{"type":"Point","coordinates":[0.090968,0.543857]}},{"type":"Feature","properties":{"id":20},"geometry":{"type":"Point","coordinates":[0.090968,0.297107]}},{"type":"Feature","properties":{"id":21},"geometry":{"type":"Point","coordinates":[0.252688,0.297107]}},{"type":"Feature","properties":{"id":22},"geometry":{"type":"Point","coordinates":[0.252688,0.543857]}},{"type":"Feature","properties":{"id":23},"geometry":{"type":"Point","coordinates":[0.252688,0.866143]}},{"type":"Feature","properties":{"id":24},"geometry":{"type":"Point","coordinates":[0.252688,1.037357]}},{"type":"Feature","properties":{"id":25},"geometry":{"type":"Point","coordinates":[1.789032,0.483429]}},{"type":"Feature","properties":{"id":26},"geometry":{"type":"Point","coordinates":[1.789032,0.543857]}},{"type":"Feature","properties":{"id":27},"geometry":{"type":"Point","coordinates":[1.789032,0.866143]}},{"type":"Feature","properties":{"id":28},"geometry":{"type":"Point","coordinates":[1.789032,1.002107]}},{"type":"Feature","properties":{"id":29},"geometry":{"type":"Point","coordinates":[1.627312,1.002107]}},{"type":"Feature","properties":{"id":30},"geometry":{"type":"Point","coordinates":[1.627312,0.866143]}},{"type":"Feature","properties":{"id":31},"geometry":{"type":"Point","coordinates":[1.627312,0.543857]}},{"type":"Feature","properties":{"id":32},"geometry":{"type":"Point","coordinates":[1.627312,0.483429]}},{"type":"Feature","properties":{"id":33},"geometry":{"type":"Point","coordinates":[0.85914,1.037357]}},{"type":"Feature","properties":{"id":34},"geometry":{"type":"Point","coordinates":[0.85914,0.866143]}},{"type":"Feature","properties":{"id":35},"geometry":{"type":"Point","coordinates":[0.85914,0.543857]}},{"type":"Feature","properties":{"id":36},"geometry":{"type":"Point","coordinates":[0.85914,0.332357]}},{"type":"Feature","properties":{"id":37},"geometry":{"type":"Point","coordinates":[1.02086,0.332357]}},{"type":"Feature","properties":{"id":38},"geometry":{"type":"Point","coordinates":[1.02086,0.543857]}},{"type":"Feature","properties":{"id":39},"geometry":{"type":"Point","coordinates":[1.02086,0.866143]}},{"type":"Feature","properties":{"id":40},"geometry":{"type":"Point","coordinates":[1.02086,1.037357]}},{"type":"Feature","properties":{"id":41},"geometry":{"type":"Point","coordinates":[0.414409,0.624429]}},{"type":"Feature","properties":{"id":42},"geometry":{"type":"Point","coordinates":[0.77828,0.624429]}},{"type":"Feature","properties":{"id":43},"geometry":{"type":"Point","coordinates":[0.77828,0.785571]}},{"type":"Feature","properties":{"id":44},"geometry":{"type":"Point","coordinates":[0.414409,0.785571]}},{"type":"Feature","properties":{"id":45},"geometry":{"type":"Point","coordinates":[1.465591,0.785571]}},{"type":"Feature","properties":{"id":46},"geometry":{"type":"Point","coordinates":[1.10172,0.785571]}},{"type":"Feature","properties":{"id":47},"geometry":{"type":"Point","coordinates":[1.10172,0.624429]}},{"type":"Feature","properties":{"id":48},"geometry":{"type":"Point","coordinates":[1.465591,0.624429]}},{"type":"Feature","properties":{"id":1000,"startid":1,"endid":2,"metadata":{"lane_id":"top_east_1","lane_kind":"road"}},"geometry":{"type":"LineString","coordinates":[[0.373978,1.158214],[0.77828,1.158214]]}},{"type":"Feature","properties":{"id":1001,"startid":3,"endid":4,"metadata":{"lane_id":"top_east_2","lane_kind":"road"}},"geometry":{"type":"LineString","coordinates":[[1.10172,1.158214],[1.470645,1.158214]]}},{"type":"Feature","properties":{"id":1002,"startid":5,"endid":6,"metadata":{"lane_id":"top_west_1","lane_kind":"road"}},"geometry":{"type":"LineString","coordinates":[[1.470645,1.319357],[1.10172,1.319357]]}},{"type":"Feature","properties":{"id":1003,"startid":7,"endid":8,"metadata":{"lane_id":"top_west_2","lane_kind":"road"}},"geometry":{"type":"LineString","coordinates":[[0.77828,1.319357],[0.373978,1.319357]]}},{"type":"Feature","properties":{"id":1004,"startid":9,"endid":10,"metadata":{"lane_id":"bottom_west_1","lane_kind":"road"}},"geometry":{"type":"LineString","coordinates":[[1.394839,0.251786],[1.10172,0.251786]]}},{"type":"Feature","properties":{"id":1005,"startid":11,"endid":12,"metadata":{"lane_id":"bottom_west_2","lane_kind":"road"}},"geometry":{"type":"LineString","coordinates":[[0.77828,0.251786],[0.298172,0.251786]]}},{"type":"Feature","properties":{"id":1006,"startid":13,"endid":14,"metadata":{"lane_id":"bottom_east_1","lane_kind":"road"}},"geometry":{"type":"LineString","coordinates":[[0.298172,0.090643],[0.77828,0.090643]]}},{"type":"Feature","properties":{"id":1007,"startid":15,"endid":16,"metadata":{"lane_id":"bottom_east_2","lane_kind":"road"}},"geometry":{"type":"LineString","coordinates":[[1.10172,0.090643],[1.394839,0.090643]]}},{"type":"Feature","properties":{"id":1008,"startid":17,"endid":18,"metadata":{"lane_id":"left_south_1","lane_kind":"road"}},"geometry":{"type":"LineString","coordinates":[[0.090968,1.037357],[0.090968,0.866143]]}},{"type":"Feature","properties":{"id":1009,"startid":19,"endid":20,"metadata":{"lane_id":"left_south_2","lane_kind":"road"}},"geometry":{"type":"LineString","coordinates":[[0.090968,0.543857],[0.090968,0.297107]]}},{"type":"Feature","properties":{"id":1010,"startid":21,"endid":22,"metadata":{"lane_id":"left_north_1","lane_kind":"road"}},"geometry":{"type":"LineString","coordinates":[[0.252688,0.297107],[0.252688,0.543857]]}},{"type":"Feature","properties":{"id":1011,"startid":23,"endid":24,"metadata":{"lane_id":"left_north_2","lane_kind":"road"}},"geometry":{"type":"LineString","coordinates":[[0.252688,0.866143],[0.252688,1.037357]]}},{"type":"Feature","properties":{"id":1012,"startid":25,"endid":26,"metadata":{"lane_id":"right_north_1","lane_kind":"road"}},"geometry":{"type":"LineString","coordinates":[[1.789032,0.483429],[1.789032,0.543857]]}},{"type":"Feature","properties":{"id":1013,"startid":27,"endid":28,"metadata":{"lane_id":"right_north_2","lane_kind":"road"}},"geometry":{"type":"LineString","coordinates":[[1.789032,0.866143],[1.789032,1.002107]]}},{"type":"Feature","properties":{"id":1014,"startid":29,"endid":30,"metadata":{"lane_id":"right_south_1","lane_kind":"road"}},"geometry":{"type":"LineString","coordinates":[[1.627312,1.002107],[1.627312,0.866143]]}},{"type":"Feature","properties":{"id":1015,"startid":31,"endid":32,"metadata":{"lane_id":"right_south_2","lane_kind":"road"}},"geometry":{"type":"LineString","coordinates":[[1.627312,0.543857],[1.627312,0.483429]]}},{"type":"Feature","properties":{"id":1016,"startid":33,"endid":34,"metadata":{"lane_id":"north_to_center","lane_kind":"road"}},"geometry":{"type":"LineString","coordinates":[[0.85914,1.037357],[0.85914,0.866143]]}},{"type":"Feature","properties":{"id":1017,"startid":35,"endid":36,"metadata":{"lane_id":"center_to_south","lane_kind":"road"}},"geometry":{"type":"LineString","coordinates":[[0.85914,0.543857],[0.85914,0.332357]]}},{"type":"Feature","properties":{"id":1018,"startid":37,"endid":38,"metadata":{"lane_id":"south_to_center","lane_kind":"road"}},"geometry":{"type":"LineString","coordinates":[[1.02086,0.332357],[1.02086,0.543857]]}},{"type":"Feature","properties":{"id":1019,"startid":39,"endid":40,"metadata":{"lane_id":"center_to_north","lane_kind":"road"}},"geometry":{"type":"LineString","coordinates":[[1.02086,0.866143],[1.02086,1.037357]]}},{"type":"Feature","properties":{"id":1020,"startid":41,"endid":42,"metadata":{"lane_id":"west_to_center","lane_kind":"road"}},"geometry":{"type":"LineString","coordinates":[[0.414409,0.624429],[0.77828,0.624429]]}},{"type":"Feature","properties":{"id":1021,"startid":43,"endid":44,"metadata":{"lane_id":"center_to_west","lane_kind":"road"}},"geometry":{"type":"LineString","coordinates":[[0.77828,0.785571],[0.414409,0.785571]]}},{"type":"Feature","properties":{"id":1022,"startid":45,"endid":46,"metadata":{"lane_id":"east_to_center","lane_kind":"road"}},"geometry":{"type":"LineString","coordinates":[[1.465591,0.785571],[1.10172,0.785571]]}},{"type":"Feature","properties":{"id":1023,"startid":47,"endid":48,"metadata":{"lane_id":"center_to_east","lane_kind":"road"}},"geometry":{"type":"LineString","coordinates":[[1.10172,0.624429],[1.465591,0.624429]]}},{"type":"Feature","properties":{"id":1024,"startid":46,"endid":43,"metadata":{"lane_id":"connector_east_west","lane_kind":"connector"}},"geometry":{"type":"LineString","coordinates":[[1.10172,0.785571],[0.77828,0.785571]]}},{"type":"Feature","properties":{"id":1025,"startid":46,"endid":39,"metadata":{"lane_id":"connector_east_north","lane_kind":"connector"}},"geometry":{"type":"LineString","coordinates":[[1.10172,0.785571],[1.031551,0.802596],[1.02086,0.866143]]}},{"type":"Feature","properties":{"id":1026,"startid":46,"endid":35,"metadata":{"lane_id":"connector_east_south","lane_kind":"connector"}},"geometry":{"type":"LineString","coordinates":[[1.10172,0.785571],[0.936452,0.696762],[0.85914,0.543857]]}},{"type":"Feature","properties":{"id":1027,"startid":38,"endid":39,"metadata":{"lane_id":"connector_south_north","lane_kind":"connector"}},"geometry":{"type":"LineString","coordinates":[[1.02086,0.543857],[1.02086,0.866143]]}},{"type":"Feature","properties":{"id":1028,"startid":38,"endid":47,"metadata":{"lane_id":"connector_south_east","lane_kind":"connector"}},"geometry":{"type":"LineString","coordinates":[[1.02086,0.543857],[1.033303,0.611429],[1.10172,0.624429]]}},{"type":"Feature","properties":{"id":1029,"startid":38,"endid":43,"metadata":{"lane_id":"connector_south_west","lane_kind":"connector"}},"geometry":{"type":"LineString","coordinates":[[1.02086,0.543857],[0.937711,0.696762],[0.77828,0.785571]]}},{"type":"Feature","properties":{"id":1030,"startid":42,"endid":47,"metadata":{"lane_id":"connector_west_east","lane_kind":"connector"}},"geometry":{"type":"LineString","coordinates":[[0.77828,0.624429],[1.10172,0.624429]]}},{"type":"Feature","properties":{"id":1031,"startid":42,"endid":39,"metadata":{"lane_id":"connector_west_north","lane_kind":"connector"}},"geometry":{"type":"LineString","coordinates":[[0.77828,0.624429],[0.94,0.701143],[1.02086,0.866143]]}},{"type":"Feature","properties":{"id":1032,"startid":42,"endid":35,"metadata":{"lane_id":"connector_west_south","lane_kind":"connector"}},"geometry":{"type":"LineString","coordinates":[[0.77828,0.624429],[0.85083,0.616928],[0.85914,0.543857]]}},{"type":"Feature","properties":{"id":1033,"startid":34,"endid":35,"metadata":{"lane_id":"connector_north_south","lane_kind":"connector"}},"geometry":{"type":"LineString","coordinates":[[0.85914,0.866143],[0.85914,0.543857]]}},{"type":"Feature","properties":{"id":1034,"startid":34,"endid":47,"metadata":{"lane_id":"connector_north_east","lane_kind":"connector"}},"geometry":{"type":"LineString","coordinates":[[0.85914,0.866143],[0.938694,0.699143],[1.10172,0.624429]]}},{"type":"Feature","properties":{"id":1035,"startid":34,"endid":43,"metadata":{"lane_id":"connector_north_west","lane_kind":"connector"}},"geometry":{"type":"LineString","coordinates":[[0.85914,0.866143],[0.851459,0.798571],[0.77828,0.785571]]}},{"type":"Feature","properties":{"id":1036,"startid":24,"endid":1,"metadata":{"lane_id":"curve_tl_inner","lane_kind":"road"}},"geometry":{"type":"LineString","coordinates":[[0.252688,1.037357],[0.264817,1.089729],[0.321419,1.146129],[0.373978,1.158214]]}},{"type":"Feature","properties":{"id":1037,"startid":8,"endid":17,"metadata":{"lane_id":"curve_tl_outer","lane_kind":"road"}},"geometry":{"type":"LineString","coordinates":[[0.373978,1.319357],[0.251677,1.291157],[0.119269,1.159221],[0.090968,1.037357]]}},{"type":"Feature","properties":{"id":1038,"startid":4,"endid":29,"metadata":{"lane_id":"curve_tr_inner","lane_kind":"road"}},"geometry":{"type":"LineString","coordinates":[[1.470645,1.158214],[1.538366,1.143107],[1.612151,1.069586],[1.627312,1.002107]]}},{"type":"Feature","properties":{"id":1039,"startid":28,"endid":5,"metadata":{"lane_id":"curve_tr_outer","lane_kind":"road"}},"geometry":{"type":"LineString","coordinates":[[1.789032,1.002107],[1.757699,1.140086],[1.609118,1.288136],[1.470645,1.319357]]}},{"type":"Feature","properties":{"id":1040,"startid":32,"endid":9,"metadata":{"lane_id":"curve_br_inner","lane_kind":"road"}},"geometry":{"type":"LineString","coordinates":[[1.627312,0.483429],[1.604065,0.382714],[1.495914,0.27495],[1.394839,0.251786]]}},{"type":"Feature","properties":{"id":1041,"startid":16,"endid":25,"metadata":{"lane_id":"curve_br_outer","lane_kind":"road"}},"geometry":{"type":"LineString","coordinates":[[1.394839,0.090643],[1.565656,0.129921],[1.749613,0.313221],[1.789032,0.483429]]}},{"type":"Feature","properties":{"id":1042,"startid":12,"endid":21,"metadata":{"lane_id":"curve_bl_inner","lane_kind":"road"}},"geometry":{"type":"LineString","coordinates":[[0.298172,0.251786],[0.277957,0.255814],[0.256731,0.276964],[0.252688,0.297107]]}},{"type":"Feature","properties":{"id":1043,"startid":20,"endid":13,"metadata":{"lane_id":"curve_bl_outer","lane_kind":"road"}},"geometry":{"type":"LineString","coordinates":[[0.090968,0.297107],[0.111183,0.207471],[0.208215,0.110786],[0.298172,0.090643]]}},{"type":"Feature","properties":{"id":1044,"startid":2,"endid":3,"metadata":{"lane_id":"conn_top_east_straight","lane_kind":"connector"}},"geometry":{"type":"LineString","coordinates":[[0.77828,1.158214],[1.10172,1.158214]]}},{"type":"Feature","properties":{"id":1045,"startid":2,"endid":33,"metadata":{"lane_id":"conn_top_east_to_south","lane_kind":"connector"}},"geometry":{"type":"LineString","coordinates":[[0.77828,1.158214],[0.838925,1.128],[0.85914,1.037357]]}},{"type":"Feature","properties":{"id":1046,"startid":6,"endid":7,"metadata":{"lane_id":"conn_top_west_straight","lane_kind":"connector"}},"geometry":{"type":"LineString","coordinates":[[1.10172,1.319357],[0.77828,1.319357]]}},{"type":"Feature","properties":{"id":1047,"startid":6,"endid":33,"metadata":{"lane_id":"conn_top_west_to_south","lane_kind":"connector"}},"geometry":{"type":"LineString","coordinates":[[1.10172,1.319357],[0.919785,1.248857],[0.85914,1.037357]]}},{"type":"Feature","properties":{"id":1048,"startid":40,"endid":3,"metadata":{"lane_id":"conn_top_north_to_east","lane_kind":"connector"}},"geometry":{"type":"LineString","coordinates":[[1.02086,1.037357],[1.041075,1.128],[1.10172,1.158214]]}},{"type":"Feature","properties":{"id":1049,"startid":40,"endid":7,"metadata":{"lane_id":"conn_top_north_to_west","lane_kind":"connector"}},"geometry":{"type":"LineString","coordinates":[[1.02086,1.037357],[0.960215,1.248857],[0.77828,1.319357]]}},{"type":"Feature","properties":{"id":1050,"startid":10,"endid":11,"metadata":{"lane_id":"conn_bot_west_straight","lane_kind":"connector"}},"geometry":{"type":"LineString","coordinates":[[1.10172,0.251786],[0.77828,0.251786]]}},{"type":"Feature","properties":{"id":1051,"startid":10,"endid":37,"metadata":{"lane_id":"conn_bot_west_to_north","lane_kind":"connector"}},"geometry":{"type":"LineString","coordinates":[[1.10172,0.251786],[1.041075,0.271929],[1.02086,0.332357]]}},{"type":"Feature","properties":{"id":1052,"startid":14,"endid":15,"metadata":{"lane_id":"conn_bot_east_straight","lane_kind":"connector"}},"geometry":{"type":"LineString","coordinates":[[0.77828,0.090643],[1.10172,0.090643]]}},{"type":"Feature","properties":{"id":1053,"startid":14,"endid":37,"metadata":{"lane_id":"conn_bot_east_to_north","lane_kind":"connector"}},"geometry":{"type":"LineString","coordinates":[[0.77828,0.090643],[0.960215,0.151071],[1.02086,0.332357]]}},{"type":"Feature","properties":{"id":1054,"startid":36,"endid":11,"metadata":{"lane_id":"conn_bot_south_to_west","lane_kind":"connector"}},"geometry":{"type":"LineString","coordinates":[[0.85914,0.332357],[0.838925,0.271929],[0.77828,0.251786]]}},{"type":"Feature","properties":{"id":1055,"startid":36,"endid":15,"metadata":{"lane_id":"conn_bot_south_to_east","lane_kind":"connector"}},"geometry":{"type":"LineString","coordinates":[[0.85914,0.332357],[0.919785,0.151072],[1.10172,0.090643]]}},{"type":"Feature","properties":{"id":1056,"startid":18,"endid":19,"metadata":{"lane_id":"conn_left_south_straight","lane_kind":"connector"}},"geometry":{"type":"LineString","coordinates":[[0.090968,0.866143],[0.090968,0.543857]]}},{"type":"Feature","properties":{"id":1057,"startid":18,"endid":41,"metadata":{"lane_id":"conn_left_south_to_east","lane_kind":"connector"}},"geometry":{"type":"LineString","coordinates":[[0.090968,0.866143],[0.171828,0.684858],[0.414409,0.624429]]}},{"type":"Feature","properties":{"id":1058,"startid":22,"endid":23,"metadata":{"lane_id":"conn_left_north_straight","lane_kind":"connector"}},"geometry":{"type":"LineString","coordinates":[[0.252688,0.543857],[0.252688,0.866143]]}},{"type":"Feature","properties":{"id":1059,"startid":22,"endid":41,"metadata":{"lane_id":"conn_left_north_to_east","lane_kind":"connector"}},"geometry":{"type":"LineString","coordinates":[[0.252688,0.543857],[0.293118,0.604286],[0.414409,0.624429]]}},{"type":"Feature","properties":{"id":1060,"startid":44,"endid":23,"metadata":{"lane_id":"conn_left_west_to_north","lane_kind":"connector"}},"geometry":{"type":"LineString","coordinates":[[0.414409,0.785571],[0.293118,0.805714],[0.252688,0.866143]]}},{"type":"Feature","properties":{"id":1061,"startid":44,"endid":19,"metadata":{"lane_id":"conn_left_west_to_south","lane_kind":"connector"}},"geometry":{"type":"LineString","coordinates":[[0.414409,0.785571],[0.171828,0.725143],[0.090968,0.543857]]}},{"type":"Feature","properties":{"id":1062,"startid":26,"endid":27,"metadata":{"lane_id":"conn_right_north_straight","lane_kind":"connector"}},"geometry":{"type":"LineString","coordinates":[[1.789032,0.543857],[1.789032,0.866143]]}},{"type":"Feature","properties":{"id":1063,"startid":26,"endid":45,"metadata":{"lane_id":"conn_right_north_to_west","lane_kind":"connector"}},"geometry":{"type":"LineString","coordinates":[[1.789032,0.543857],[1.708172,0.725143],[1.465591,0.785571]]}},{"type":"Feature","properties":{"id":1064,"startid":30,"endid":31,"metadata":{"lane_id":"conn_right_south_straight","lane_kind":"connector"}},"geometry":{"type":"LineString","coordinates":[[1.627312,0.866143],[1.627312,0.543857]]}},{"type":"Feature","properties":{"id":1065,"startid":30,"endid":45,"metadata":{"lane_id":"conn_right_south_to_west","lane_kind":"connector"}},"geometry":{"type":"LineString","coordinates":[[1.627312,0.866143],[1.586882,0.805714],[1.465591,0.785571]]}},{"type":"Feature","properties":{"id":1066,"startid":48,"endid":31,"metadata":{"lane_id":"conn_right_east_to_south","lane_kind":"connector"}},"geometry":{"type":"LineString","coordinates":[[1.465591,0.624429],[1.586882,0.604286],[1.627312,0.543857]]}},{"type":"Feature","properties":{"id":1067,"startid":48,"endid":27,"metadata":{"lane_id":"conn_right_east_to_north","lane_kind":"connector"}},"geometry":{"type":"LineString","coordinates":[[1.465591,0.624429],[1.708172,0.684858],[1.789032,0.866143]]}}]}
